{
    "links": {
        "self": "http://www.neowsapp.com/rest/v1/neo/3449129?api_key=iIulBulltgU6a56xZRHN4H3l9WmuAYTsLGpBGhQ2"
    },
    "id": "3449129",
    "neo_reference_id": "3449129",
    "name": "(2009 EE1)",
    "designation": "2009 EE1",
    "nasa_jpl_url": "http://ssd.jpl.nasa.gov/sbdb.cgi?sstr=3449129",
    "absolute_magnitude_h": 25.4,
    "estimated_diameter": {
        "kilometers": {
            "estimated_diameter_min": 0.022108281,
            "estimated_diameter_max": 0.0494356193
        },
        "meters": {
            "estimated_diameter_min": 22.1082810359,
            "estimated_diameter_max": 49.435619262
        },
        "miles": {
            "estimated_diameter_min": 0.0137374447,
            "estimated_diameter_max": 0.0307178602
        },
        "feet": {
            "estimated_diameter_min": 72.5337327539,
            "estimated_diameter_max": 162.1903570994
        }
    },
    "is_potentially_hazardous_asteroid": false,
    "close_approach_data": [
        {
            "close_approach_date": "2009-03-09",
            "close_approach_date_full": "2009-Mar-09 16:25",
            "epoch_date_close_approach": 1236615900000,
            "relative_velocity": {
                "kilometers_per_second": "5.7997824674",
                "kilometers_per_hour": "20879.2168827781",
                "miles_per_hour": "12973.5334014129"
            },
            "miss_distance": {
                "astronomical": "0.0760094086",
                "lunar": "29.5676599454",
                "kilometers": "11370845.626519682",
                "miles": "7065515.8399963316"
            },
            "orbiting_body": "Earth"
        }
    ],
    "orbital_data": {
        "orbit_id": "10",
        "orbit_determination_date": "2017-04-06 09:01:05",
        "first_observation_date": "2009-03-03",
        "last_observation_date": "2009-03-31",
        "data_arc_in_days": 28,
        "observations_used": 29,
        "orbit_uncertainty": "8",
        "minimum_orbit_intersection": ".0750703",
        "jupiter_tisserand_invariant": "3.378",
        "epoch_osculation": "2454903.5",
        "eccentricity": ".5371186366296463",
        "semi_major_axis": "2.308171172255925",
        "inclination": ".6069252908900475",
        "ascending_node_longitude": "1.492883103784829",
        "orbital_period": "1280.856409384284",
        "perihelion_distance": "1.06840941910597",
        "perihelion_argument": "167.8481875328464",
        "aphelion_distance": "3.54793292540588",
        "perihelion_time": "2454899.938663769394",
        "mean_anomaly": "1.000956105325236",
        "mean_motion": ".2810619499285281",
        "equinox": "J2000",
        "orbit_class": {
            "orbit_class_type": "AMO",
            "orbit_class_description": "Near-Earth asteroid orbits similar to that of 1221 Amor",
            "orbit_class_range": "1.017 AU < q (perihelion) < 1.3 AU"
        }
    },
    "is_sentry_object": false
}